[{"OBJECT_NAME":"FLOCK 4G-2","OBJECT_ID":"2025-009BE","EPOCH":"2026-03-09T15:53:23.273952","MEAN_MOTION":15.2767526,"ECCENTRICITY":0.00031811,"INCLINATION":97.4044,"RA_OF_ASC_NODE":151.2221,"ARG_OF_PERICENTER":329.2677,"MEAN_ANOMALY":30.8376,"EPHEMERIS_TYPE":0,"CLASSIFICATION_TYPE":"U","NORAD_CAT_ID":62661,"ELEMENT_SET_NO":999,"REV_AT_EPOCH":12132,"BSTAR":0.00051068481,"MEAN_MOTION_DOT":0.00013752,"MEAN_MOTION_DDOT":0},{"OBJECT_NAME":"STARLINK-35502","OBJECT_ID":"2025-259P","EPOCH":"2026-03-09T22:30:57.169152","MEAN_MOTION":15.27602294,"ECCENTRICITY":0.0001765,"INCLINATION":43.0042,"RA_OF_ASC_NODE":272.5654,"ARG_OF_PERICENTER":281.8342,"MEAN_ANOMALY":78.2312,"EPHEMERIS_TYPE":0,"CLASSIFICATION_TYPE":"U","NORAD_CAT_ID":66435,"ELEMENT_SET_NO":999,"REV_AT_EPOCH":1953,"BSTAR":0.00099151623,"MEAN_MOTION_DOT":0.00027141,"MEAN_MOTION_DDOT":0}]
